{"type": "FeatureCollection", "features": [ {"type": "Feature", "properties": {"norad_id": 31984, "name": "FENGYUN 1C DEB", "group": "fengyun-1c-debris", "lat": 81.43572311315594, "lon": -96.5057807630302, "alt_km": 838.755329872236, "timestamp": "2025-12-14T05:42:18.745515+00:00", "meta": {"OBJECT_NAME": "FENGYUN 1C DEB", "OBJECT_ID": "1999-025CPM", "EPOCH": "2025-12-02T19:53:15.322848", "MEAN_MOTION": 14.2293256, "ECCENTRICITY": 0.00625309, "INCLINATION": 98.5577, "RA_OF_ASC_NODE": 341.445, "ARG_OF_PERICENTER": 256.5759, "MEAN_ANOMALY": 102.8445, "EPHEMERIS_TYPE": 0, "CLASSIFICATION_TYPE": "U", "NORAD_CAT_ID": 31984, "ELEMENT_SET_NO": 999, "REV_AT_EPOCH": 94232, "BSTAR": 0.00049073387, "MEAN_MOTION_DOT": 1.083e-05, "MEAN_MOTION_DDOT": 0}, "tle": {"line1": "1 31984U 99025CPM 25336.82864957  .00001083  00000+0  49073-3 0  9995", "line2": "2 31984  98.5577 341.4450 0062530 256.5759 102.8445 14.22932560942322"}}, "geometry": {"type": "Point", "coordinates": [-96.5057807630302, 81.43572311315594]}}, {"type": "Feature", "properties": {"norad_id": 31985, "name": "FENGYUN 1C DEB", "group": "fengyun-1c-debris", "lat": -44.0913088146224, "lon": 61.31251478394009, "alt_km": 718.7436779843665, "timestamp": "2025-12-14T05:42:18.745525+00:00", "meta": {"OBJECT_NAME": "FENGYUN 1C DEB", "OBJECT_ID": "1999-025CPN", "EPOCH": "2025-12-10T12:53:19.926816", "MEAN_MOTION": 14.22969288, "ECCENTRICITY": 0.0150474, "INCLINATION": 98.2197, "RA_OF_ASC_NODE": 245.9057, "ARG_OF_PERICENTER": 253.2577, "MEAN_ANOMALY": 105.2044, "EPHEMERIS_TYPE": 0, "CLASSIFICATION_TYPE": "U", "NORAD_CAT_ID": 31985, "ELEMENT_SET_NO": 999, "REV_AT_EPOCH": 95579, "BSTAR": 0.00055157, "MEAN_MOTION_DOT": 1.353e-05, "MEAN_MOTION_DDOT": 0}, "tle": {"line1": "1 31985U 99025CPN 25344.53703619  .00001353  00000+0  55157-3 0  9990", "line2": "2 31985  98.2197 245.9057 0150474 253.2577 105.2044 14.22969288955790"}}, "geometry": {"type": "Point", "coordinates": [61.31251478394009, -44.0913088146224]}}, {"type": "Feature", "properties": {"norad_id": 31987, "name": "FENGYUN 1C DEB", "group": "fengyun-1c-debris", "lat": 52.70578975061959, "lon": 154.0021111986741, "alt_km": 704.5184261098993, "timestamp": "2025-12-14T05:42:18.745536+00:00", "meta": {"OBJECT_NAME": "FENGYUN 1C DEB", "OBJECT_ID": "1999-025CPQ", "EPOCH": "2025-12-13T09:52:48.764064", "MEAN_MOTION": 14.44921108, "ECCENTRICITY": 0.00515002, "INCLINATION": 99.0393, "RA_OF_ASC_NODE": 321.0593, "ARG_OF_PERICENTER": 155.5425, "MEAN_ANOMALY": 356.601, "EPHEMERIS_TYPE": 0, "CLASSIFICATION_TYPE": "U", "NORAD_CAT_ID": 31987, "ELEMENT_SET_NO": 999, "REV_AT_EPOCH": 96379, "BSTAR": 0.0016080994, "MEAN_MOTION_DOT": 5.647e-05, "MEAN_MOTION_DDOT": 0}, "tle": {"line1": "1 31987U 99025CPQ 25347.41167551  .00005647  00000+0  16081-2 0  9993", "line2": "2 31987  99.0393 321.0593 0051500 155.5425 356.6010 14.44921108963793"}}, "geometry": {"type": "Point", "coordinates": [154.0021111986741, 52.70578975061959]}}, {"type": "Feature", "properties": {"norad_id": 31989, "name": "FENGYUN 1C DEB", "group": "fengyun-1c-debris", "lat": 33.387697044350574, "lon": -124.4759431213273, "alt_km": 985.7255788802868, "timestamp": "2025-12-14T05:42:18.745546+00:00", "meta": {"OBJECT_NAME": "FENGYUN 1C DEB", "OBJECT_ID": "1999-025CPS", "EPOCH": "2025-12-13T03:18:00.139968", "MEAN_MOTION": 13.93588566, "ECCENTRICITY": 0.01152319, "INCLINATION": 99.2133, "RA_OF_ASC_NODE": 48.2874, "ARG_OF_PERICENTER": 298.0379, "MEAN_ANOMALY": 91.9656, "EPHEMERIS_TYPE": 0, "CLASSIFICATION_TYPE": "U", "NORAD_CAT_ID": 31989, "ELEMENT_SET_NO": 999, "REV_AT_EPOCH": 93723, "BSTAR": 0.00070738029, "MEAN_MOTION_DOT": 9.35e-06, "MEAN_MOTION_DDOT": 0}, "tle": {"line1": "1 31989U 99025CPS 25347.13750162  .00000935  00000+0  70738-3 0  9995", "line2": "2 31989  99.2133  48.2874 0115231 298.0379  91.9656 13.93588566937237"}}, "geometry": {"type": "Point", "coordinates": [-124.4759431213273, 33.387697044350574]}}, {"type": "Feature", "properties": {"norad_id": 31990, "name": "FENGYUN 1C DEB", "group": "fengyun-1c-debris", "lat": 44.6385492280484, "lon": 1.4574277189241578, "alt_km": 1176.703298139958, "timestamp": "2025-12-14T05:42:18.745557+00:00", "meta": {"OBJECT_NAME": "FENGYUN 1C DEB", "OBJECT_ID": "1999-025CPT", "EPOCH": "2025-12-13T08:19:13.863072", "MEAN_MOTION": 13.5720279, "ECCENTRICITY": 0.02602077, "INCLINATION": 99.1607, "RA_OF_ASC_NODE": 9.795, "ARG_OF_PERICENTER": 183.0012, "MEAN_ANOMALY": 193.3512, "EPHEMERIS_TYPE": 0, "CLASSIFICATION_TYPE": "U", "NORAD_CAT_ID": 31990, "ELEMENT_SET_NO": 999, "REV_AT_EPOCH": 62780, "BSTAR": 0.00038185825, "MEAN_MOTION_DOT": 2.99e-06, "MEAN_MOTION_DDOT": 0}, "tle": {"line1": "1 31990U 99025CPT 25347.34668823  .00000299  00000+0  38186-3 0  9996", "line2": "2 31990  99.1607   9.7950 0260207 183.0012 193.3512 13.57202790627801"}}, "geometry": {"type": "Point", "coordinates": [1.4574277189241578, 44.6385492280484]}}, {"type": "Feature", "properties": {"norad_id": 31991, "name": "FENGYUN 1C DEB", "group": "fengyun-1c-debris", "lat": 79.39346798079734, "lon": 78.8305765185102, "alt_km": 886.7361108251325, "timestamp": "2025-12-14T05:42:18.745567+00:00", "meta": {"OBJECT_NAME": "FENGYUN 1C DEB", "OBJECT_ID": "1999-025CPU", "EPOCH": "2025-12-10T18:22:22.024416", "MEAN_MOTION": 13.6127752, "ECCENTRICITY": 0.02446272, "INCLINATION": 100.4864, "RA_OF_ASC_NODE": 173.6062, "ARG_OF_PERICENTER": 58.2006, "MEAN_ANOMALY": 304.2706, "EPHEMERIS_TYPE": 0, "CLASSIFICATION_TYPE": "U", "NORAD_CAT_ID": 31991, "ELEMENT_SET_NO": 999, "REV_AT_EPOCH": 62060, "BSTAR": 0.00020963887, "MEAN_MOTION_DOT": 1.45e-06, "MEAN_MOTION_DDOT": 0}, "tle": {"line1": "1 31991U 99025CPU 25344.76553269  .00000145  00000+0  20964-3 0  9992", "line2": "2 31991 100.4864 173.6062 0244627  58.2006 304.2706 13.61277520620609"}}, "geometry": {"type": "Point", "coordinates": [78.8305765185102, 79.39346798079734]}}, {"type": "Feature", "properties": {"norad_id": 31992, "name": "FENGYUN 1C DEB", "group": "fengyun-1c-debris", "lat": 45.56247858112802, "lon": 137.4136970407908, "alt_km": 1272.882788217703, "timestamp": "2025-12-14T05:42:18.745577+00:00", "meta": {"OBJECT_NAME": "FENGYUN 1C DEB", "OBJECT_ID": "1999-025CPV", "EPOCH": "2025-12-12T04:04:23.293056", "MEAN_MOTION": 13.22988689, "ECCENTRICITY": 0.05424019, "INCLINATION": 99.1658, "RA_OF_ASC_NODE": 306.1111, "ARG_OF_PERICENTER": 30.97, "MEAN_ANOMALY": 332.2249, "EPHEMERIS_TYPE": 0, "CLASSIFICATION_TYPE": "U", "NORAD_CAT_ID": 31992, "ELEMENT_SET_NO": 999, "REV_AT_EPOCH": 53867, "BSTAR": 0.001808457, "MEAN_MOTION_DOT": 1.63e-05, "MEAN_MOTION_DDOT": 0}, "tle": {"line1": "1 31992U 99025CPV 25346.16971404  .00001630  00000+0  18085-2 0  9994", "line2": "2 31992  99.1658 306.1111 0542401  30.9700 332.2249 13.22988689538672"}}, "geometry": {"type": "Point", "coordinates": [137.4136970407908, 45.56247858112802]}}, {"type": "Feature", "properties": {"norad_id": 31993, "name": "FENGYUN 1C DEB", "group": "fengyun-1c-debris", "lat": -11.34440830529297, "lon": 138.47277422326997, "alt_km": 990.4556039779827, "timestamp": "2025-12-14T05:42:18.745588+00:00", "meta": {"OBJECT_NAME": "FENGYUN 1C DEB", "OBJECT_ID": "1999-025CPW", "EPOCH": "2025-12-13T03:27:29.109024", "MEAN_MOTION": 13.27453575, "ECCENTRICITY": 0.04217087, "INCLINATION": 99.2408, "RA_OF_ASC_NODE": 319.3656, "ARG_OF_PERICENTER": 134.3236, "MEAN_ANOMALY": 229.3281, "EPHEMERIS_TYPE": 0, "CLASSIFICATION_TYPE": "U", "NORAD_CAT_ID": 31993, "ELEMENT_SET_NO": 999, "REV_AT_EPOCH": 88948, "BSTAR": 0.0020555471, "MEAN_MOTION_DOT": 1.464e-05, "MEAN_MOTION_DDOT": 0}, "tle": {"line1": "1 31993U 99025CPW 25347.14408691  .00001464  00000+0  20555-2 0  9997", "line2": "2 31993  99.2408 319.3656 0421708 134.3236 229.3281 13.27453575889482"}}, "geometry": {"type": "Point", "coordinates": [138.47277422326997, -11.34440830529297]}}, {"type": "Feature", "properties": {"norad_id": 31994, "name": "FENGYUN 1C DEB", "group": "fengyun-1c-debris", "lat": 30.70007725785688, "lon": -22.81207136213423, "alt_km": 946.9680373180763, "timestamp": "2025-12-14T05:42:18.745598+00:00", "meta": {"OBJECT_NAME": "FENGYUN 1C DEB", "OBJECT_ID": "1999-025CPX", "EPOCH": "2025-12-12T22:35:07.688544", "MEAN_MOTION": 13.95758922, "ECCENTRICITY": 0.01622783, "INCLINATION": 98.5393, "RA_OF_ASC_NODE": 341.1035, "ARG_OF_PERICENTER": 145.5095, "MEAN_ANOMALY": 215.6728, "EPHEMERIS_TYPE": 0, "CLASSIFICATION_TYPE": "U", "NORAD_CAT_ID": 31994, "ELEMENT_SET_NO": 999, "REV_AT_EPOCH": 56799, "BSTAR": 9.9108947e-05, "MEAN_MOTION_DOT": 1.12e-06, "MEAN_MOTION_DDOT": 0}, "tle": {"line1": "1 31994U 99025CPX 25346.94106121  .00000112  00000+0  99109-4 0  9990", "line2": "2 31994  98.5393 341.1035 0162278 145.5095 215.6728 13.95758922567995"}}, "geometry": {"type": "Point", "coordinates": [-22.81207136213423, 30.70007725785688]}}, {"type": "Feature", "properties": {"norad_id": 31997, "name": "FENGYUN 1C DEB", "group": "fengyun-1c-debris", "lat": 10.284352362358991, "lon": -145.54252229993156, "alt_km": 1069.7119657427374, "timestamp": "2025-12-14T05:42:18.745608+00:00", "meta": {"OBJECT_NAME": "FENGYUN 1C DEB", "OBJECT_ID": "1999-025CQA", "EPOCH": "2025-12-13T09:25:56.337888", "MEAN_MOTION": 13.6067837, "ECCENTRICITY": 0.02900341, "INCLINATION": 102.5108, "RA_OF_ASC_NODE": 31.0702, "ARG_OF_PERICENTER": 272.3315, "MEAN_ANOMALY": 84.4639, "EPHEMERIS_TYPE": 0, "CLASSIFICATION_TYPE": "U", "NORAD_CAT_ID": 31997, "ELEMENT_SET_NO": 999, "REV_AT_EPOCH": 61692, "BSTAR": 0.0032564091, "MEAN_MOTION_DOT": 3.18e-05, "MEAN_MOTION_DDOT": 0}, "tle": {"line1": "1 31997U 99025CQA 25347.39301317  .00003180  00000+0  32564-2 0  9995", "line2": "2 31997 102.5108  31.0702 0290034 272.3315  84.4639 13.60678370616921"}}, "geometry": {"type": "Point", "coordinates": [-145.54252229993156, 10.284352362358991]}}]}